CCSDS_OMM_VERS,COMMENT,CREATION_DATE,ORIGINATOR,OBJECT_NAME,OBJECT_ID,CENTER_NAME,REF_FRAME,TIME_SYSTEM,MEAN_ELEMENT_THEORY,EPOCH,MEAN_MOTION,ECCENTRICITY,INCLINATION,RA_OF_ASC_NODE,ARG_OF_PERICENTER,MEAN_ANOMALY,EPHEMERIS_TYPE,CLASSIFICATION_TYPE,NORAD_CAT_ID,ELEMENT_SET_NO,REV_AT_EPOCH,BSTAR,MEAN_MOTION_DOT,MEAN_MOTION_DDOT,SEMIMAJOR_AXIS,PERIOD,APOAPSIS,PERIAPSIS,OBJECT_TYPE,RCS_SIZE,COUNTRY_CODE,LAUNCH_DATE,SITE,DECAY_DATE,FILE,GP_ID,TLE_LINE0,TLE_LINE1,TLE_LINE2
"2.0","GENERATED VIA SPACE-TRACK.ORG API","2020-04-23T17:27:44","18 SPCS","COSMOS 2498","2014-028C","EARTH","TEME","UTC","SGP4","2020-04-23T04:16:21.747936","12.42885833","0.00194480","82.4456","75.6932","288.2581","71.6380","0","U","39763","999","26857","0.00016055000000","0.00000032","0.0000000000000","7872.530","115.859","1509.705","1479.084","PAYLOAD","LARGE","CIS","2014-05-23","PKMTR","","2738303","152691848","0 COSMOS 2498","1 39763U 14028C   20114.17802949 +.00000032 +00000-0 +16055-3 0  9996","2 39763 082.4456 075.6932 0019448 288.2581 071.6380 12.42885833268578"
"2.0","GENERATED VIA SPACE-TRACK.ORG API","2020-04-23T01:22:27","18 SPCS","COSMOS 1732","1986-015A","EARTH","TEME","UTC","SGP4","2020-04-22T21:19:29.796384","12.40984317","0.00258780","73.6104","75.5960","40.4638","319.8324","0","U","16593","999","54914","-0.00012367000000","-0.00000034","0.0000000000000","7880.570","116.036","1522.828","1482.041","PAYLOAD","LARGE","CIS","1986-02-11","PKMTR","","2737866","152650220","0 COSMOS 1732","1 16593U 86015A   20113.88853931 -.00000034 +00000-0 -12367-3 0  9997","2 16593 073.6104 075.5960 0025878 040.4638 319.8324 12.40984317549146"
"2.0","GENERATED VIA SPACE-TRACK.ORG API","2020-04-23T01:22:27","18 SPCS","COSMOS 2498","2014-028C","EARTH","TEME","UTC","SGP4","2020-04-22T16:40:52.080672","12.42885828","0.00194550","82.4454","75.9957","289.3624","70.5354","0","U","39763","999","26851","0.00016152000000","0.00000032","0.0000000000000","7872.530","115.859","1509.711","1479.079","PAYLOAD","LARGE","CIS","2014-05-23","PKMTR","","2737866","152661304","0 COSMOS 2498","1 39763U 14028C   20113.69504723 +.00000032 +00000-0 +16152-3 0  9999","2 39763 082.4454 075.9957 0019455 289.3624 070.5354 12.42885828268511"
"2.0","GENERATED VIA SPACE-TRACK.ORG API","2020-04-22T14:46:09","18 SPCS","COSMOS 2498","2014-028C","EARTH","TEME","UTC","SGP4","2020-04-22T08:57:12.309696","12.42885780","0.00194680","82.4454","76.1977","290.0564","69.8424","0","U","39763","999","26847","0.00013535000000","0.00000028","0.0000000000000","7872.530","115.859","1509.721","1479.069","PAYLOAD","LARGE","CIS","2014-05-23","PKMTR","","2737701","152622185","0 COSMOS 2498","1 39763U 14028C   20113.37305914  .00000028  00000-0  13535-3 0  9992","2 39763  82.4454  76.1977 0019468 290.0564  69.8424 12.42885780268473"
"2.0","GENERATED VIA SPACE-TRACK.ORG API","2020-04-22T18:01:17","18 SPCS","COSMOS 1732","1986-015A","EARTH","TEME","UTC","SGP4","2020-04-22T07:46:58.729440","12.40984324","0.00258660","73.6103","76.3521","41.2778","319.0215","0","U","16593","999","54907","-0.00011801000000","-0.00000033","0.0000000000000","7880.570","116.036","1522.819","1482.051","PAYLOAD","LARGE","CIS","1986-02-11","PKMTR","","2737780","152628500","0 COSMOS 1732","1 16593U 86015A   20113.32429085 -.00000033 +00000-0 -11801-3 0  9996","2 16593 073.6103 076.3521 0025866 041.2778 319.0215 12.40984324549079"
"2.0","GENERATED VIA SPACE-TRACK.ORG API","2020-04-22T06:26:09","18 SPCS","COSMOS 1732","1986-015A","EARTH","TEME","UTC","SGP4","2020-04-22T03:54:49.853664","12.40984306","0.00258600","73.6103","76.5682","41.5089","318.7913","0","U","16593","999","54930","-0.00014170000000","-0.00000036","0.0000000000000","7880.570","116.036","1522.814","1482.056","PAYLOAD","LARGE","CIS","1986-02-11","PKMTR","","2737399","152615100","0 COSMOS 1732","1 16593U 86015A   20113.16307701 -.00000036  00000-0 -14170-3 0  9993","2 16593  73.6103  76.5682 0025860  41.5089 318.7913 12.40984306549308"
"2.0","GENERATED VIA SPACE-TRACK.ORG API","2020-04-22T01:56:49","18 SPCS","COSMOS 1732","1986-015A","EARTH","TEME","UTC","SGP4","2020-04-21T20:10:32.099520","12.40984342","0.00258560","73.6102","77.0003","41.9800","318.3220","0","U","16593","999","54901","-0.00011381000000","-0.00000033","0.0000000000000","7880.570","116.036","1522.811","1482.059","PAYLOAD","LARGE","CIS","1986-02-11","PKMTR","","2737368","152598694","0 COSMOS 1732","1 16593U 86015A   20112.84064930 -.00000033 +00000-0 -11381-3 0  9999","2 16593 073.6102 077.0003 0025856 041.9800 318.3220 12.40984342549015"
"2.0","GENERATED VIA SPACE-TRACK.ORG API","2020-04-22T01:56:49","18 SPCS","COSMOS 2498","2014-028C","EARTH","TEME","UTC","SGP4","2020-04-21T19:25:47.674848","12.42885809","0.00194820","82.4452","76.5507","291.3162","68.5837","0","U","39763","999","26840","0.00016239000000","0.00000032","0.0000000000000","7872.530","115.859","1509.732","1479.058","PAYLOAD","LARGE","CIS","2014-05-23","PKMTR","","2737368","152609785","0 COSMOS 2498","1 39763U 14028C   20112.80957957 +.00000032 +00000-0 +16239-3 0  9998","2 39763 082.4452 076.5507 0019482 291.3162 068.5837 12.42885809268407"
"2.0","GENERATED VIA SPACE-TRACK.ORG API","2020-04-21T07:06:09","18 SPCS","COSMOS 2498","2014-028C","EARTH","TEME","UTC","SGP4","2020-04-21T03:58:28.138944","12.42885696","0.00194950","82.4451","76.9539","292.7035","67.1989","0","U","39763","999","26832","0.00010397000000","0.00000024","0.0000000000000","7872.531","115.859","1509.743","1479.048","PAYLOAD","LARGE","CIS","2014-05-23","PKMTR","","2736989","152546273","0 COSMOS 2498","1 39763U 14028C   20112.16560346  .00000024  00000-0  10397-3 0  9999","2 39763  82.4451  76.9539 0019495 292.7035  67.1989 12.42885696268321"
"2.0","GENERATED VIA SPACE-TRACK.ORG API","2020-04-21T17:15:56","18 SPCS","COSMOS 1732","1986-015A","EARTH","TEME","UTC","SGP4","2020-04-21T00:49:47.722368","12.40984316","0.00258390","73.6100","78.0805","43.1503","317.1560","0","U","16593","999","54891","-0.00012604000000","-0.00000034","0.0000000000000","7880.570","116.036","1522.797","1482.072","PAYLOAD","LARGE","CIS","1986-02-11","PKMTR","","2737156","152554194","0 COSMOS 1732","1 16593U 86015A   20112.03458012 -.00000034 +00000-0 -12604-3 0  9998","2 16593 073.6100 078.0805 0025839 043.1503 317.1560 12.40984316548912"
"2.0","GENERATED VIA SPACE-TRACK.ORG API","2020-04-21T01:56:12","18 SPCS","COSMOS 1732","1986-015A","EARTH","TEME","UTC","SGP4","2020-04-20T20:57:38.847456","12.40984331","0.00258390","73.6100","78.2965","43.3867","316.9204","0","U","16593","999","54889","-0.00009780100000","-0.00000030","0.0000000000000","7880.570","116.036","1522.797","1482.072","PAYLOAD","LARGE","CIS","1986-02-11","PKMTR","","2736941","152509412","0 COSMOS 1732","1 16593U 86015A   20111.87336629 -.00000030 +00000-0 -97801-4 0  9997","2 16593 073.6100 078.2965 0025839 043.3867 316.9204 12.40984331548892"
"2.0","GENERATED VIA SPACE-TRACK.ORG API","2020-04-21T01:56:12","18 SPCS","COSMOS 2498","2014-028C","EARTH","TEME","UTC","SGP4","2020-04-20T18:18:53.421984","12.42885656","0.00194990","82.4448","77.2058","293.6562","66.2475","0","U","39763","999","26827","0.00008965700000","0.00000022","0.0000000000000","7872.531","115.859","1509.746","1479.045","PAYLOAD","LARGE","CIS","2014-05-23","PKMTR","","2736941","152520504","0 COSMOS 2498","1 39763U 14028C   20111.76311831 +.00000022 +00000-0 +89657-4 0  9991","2 39763 082.4448 077.2058 0019499 293.6562 066.2475 12.42885656268276"
"2.0","GENERATED VIA SPACE-TRACK.ORG API","2020-04-20T15:51:46","18 SPCS","COSMOS 2498","2014-028C","EARTH","TEME","UTC","SGP4","2020-04-20T04:47:28.800096","12.42885601","0.00194950","82.4444","77.5585","294.9098","64.9955","0","U","39763","999","26820","0.00004715800000","0.00000016","0.0000000000000","7872.531","115.859","1509.743","1479.048","PAYLOAD","LARGE","CIS","2014-05-23","PKMTR","","2736738","152495993","0 COSMOS 2498","1 39763U 14028C   20111.19963889 +.00000016 +00000-0 +47158-4 0  9997","2 39763 082.4444 077.5585 0019495 294.9098 064.9955 12.42885601268205"
"2.0","GENERATED VIA SPACE-TRACK.ORG API","2020-04-20T15:51:46","18 SPCS","COSMOS 1732","1986-015A","EARTH","TEME","UTC","SGP4","2020-04-20T01:36:54.466848","12.40984356","0.00258260","73.6098","79.3767","44.5674","315.7440","0","U","16593","999","54879","-0.00001883900000","-0.00000020","0.0000000000000","7880.570","116.036","1522.787","1482.082","PAYLOAD","LARGE","CIS","1986-02-11","PKMTR","","2736738","152484902","0 COSMOS 1732","1 16593U 86015A   20111.06729707 -.00000020 +00000-0 -18839-4 0  9994","2 16593 073.6098 079.3767 0025826 044.5674 315.7440 12.40984356548790"
"2.0","GENERATED VIA SPACE-TRACK.ORG API","2020-04-20T01:59:44","18 SPCS","COSMOS 2498","2014-028C","EARTH","TEME","UTC","SGP4","2020-04-19T21:03:49.030848","12.42885597","0.00194950","82.4444","77.7602","295.6107","64.2963","0","U","39763","999","26816","0.00004715800000","0.00000016","0.0000000000000","7872.531","115.859","1509.743","1479.048","PAYLOAD","LARGE","CIS","2014-05-23","PKMTR","","2736606","152473073","0 COSMOS 2498","1 39763U 14028C   20110.87765082 +.00000016 +00000-0 +47158-4 0  9996","2 39763 082.4444 077.7602 0019495 295.6107 064.2963 12.42885597268167"
"2.0","GENERATED VIA SPACE-TRACK.ORG API","2020-04-19T22:16:09","18 SPCS","COSMOS 1732","1986-015A","EARTH","TEME","UTC","SGP4","2020-04-19T15:56:32.278272","12.40984364","0.00258210","73.6097","79.9168","45.1506","315.1630","0","U","16593","999","54899","0.00002029200000","-0.00000014","0.0000000000000","7880.570","116.036","1522.783","1482.086","PAYLOAD","LARGE","CIS","1986-02-11","PKMTR","","2736522","152455943","0 COSMOS 1732","1 16593U 86015A   20110.66426248 -.00000014  00000-0  20292-4 0  9991","2 16593  73.6097  79.9168 0025821  45.1506 315.1630 12.40984364548992"
